{"type": "FeatureCollection", "features": [ {"type": "Feature", "properties": {"norad_id": 30013, "name": "FENGYUN 1C DEB", "group": "fengyun-1c-debris", "lat": -43.81238243450001, "lon": 179.6332322170146, "alt_km": 1035.7116727256298, "timestamp": "2025-12-15T11:38:37.426516+00:00", "meta": {"OBJECT_NAME": "FENGYUN 1C DEB", "OBJECT_ID": "1999-025MN", "EPOCH": "2025-12-14T21:18:00.254880", "MEAN_MOTION": 13.8782654, "ECCENTRICITY": 0.01281543, "INCLINATION": 99.5802, "RA_OF_ASC_NODE": 8.3448, "ARG_OF_PERICENTER": 38.3314, "MEAN_ANOMALY": 81.989, "EPHEMERIS_TYPE": 0, "CLASSIFICATION_TYPE": "U", "NORAD_CAT_ID": 30013, "ELEMENT_SET_NO": 999, "REV_AT_EPOCH": 95711, "BSTAR": 0.00027233366, "MEAN_MOTION_DOT": 2.98e-06, "MEAN_MOTION_DDOT": 0}, "tle": {"line1": "1 30013U 99025MN  25348.88750295  .00000298  00000+0  27233-3 0  9996", "line2": "2 30013  99.5802   8.3448 0128154  38.3314  81.9890 13.87826540957114"}}, "geometry": {"type": "Point", "coordinates": [179.6332322170146, -43.81238243450001]}}, {"type": "Feature", "properties": {"norad_id": 30015, "name": "FENGYUN 1C DEB", "group": "fengyun-1c-debris", "lat": 36.24986975148265, "lon": 179.38008004653915, "alt_km": 761.5531987854465, "timestamp": "2025-12-15T11:38:37.426529+00:00", "meta": {"OBJECT_NAME": "FENGYUN 1C DEB", "OBJECT_ID": "1999-025MQ", "EPOCH": "2025-12-14T23:19:45.064704", "MEAN_MOTION": 14.30806553, "ECCENTRICITY": 0.00386045, "INCLINATION": 99.2285, "RA_OF_ASC_NODE": 351.9894, "ARG_OF_PERICENTER": 118.5939, "MEAN_ANOMALY": 262.8401, "EPHEMERIS_TYPE": 0, "CLASSIFICATION_TYPE": "U", "NORAD_CAT_ID": 30015, "ELEMENT_SET_NO": 999, "REV_AT_EPOCH": 98205, "BSTAR": 0.00051220622, "MEAN_MOTION_DOT": 1.305e-05, "MEAN_MOTION_DDOT": 0}, "tle": {"line1": "1 30015U 99025MQ  25348.97204936  .00001305  00000+0  51221-3 0  9998", "line2": "2 30015  99.2285 351.9894 0038604 118.5939 262.8401 14.30806553982054"}}, "geometry": {"type": "Point", "coordinates": [179.38008004653915, 36.24986975148265]}}, {"type": "Feature", "properties": {"norad_id": 30016, "name": "FENGYUN 1C DEB", "group": "fengyun-1c-debris", "lat": 21.34888138256422, "lon": -1.7747614233666107, "alt_km": 601.4103888453483, "timestamp": "2025-12-15T11:38:37.426540+00:00", "meta": {"OBJECT_NAME": "FENGYUN 1C DEB", "OBJECT_ID": "1999-025MR", "EPOCH": "2025-12-14T22:51:35.331264", "MEAN_MOTION": 14.78579358, "ECCENTRICITY": 0.00467633, "INCLINATION": 98.9054, "RA_OF_ASC_NODE": 1.1501, "ARG_OF_PERICENTER": 34.1738, "MEAN_ANOMALY": 34.0199, "EPHEMERIS_TYPE": 0, "CLASSIFICATION_TYPE": "U", "NORAD_CAT_ID": 30016, "ELEMENT_SET_NO": 999, "REV_AT_EPOCH": 99486, "BSTAR": 0.001105746, "MEAN_MOTION_DOT": 8.181e-05, "MEAN_MOTION_DDOT": 0}, "tle": {"line1": "1 30016U 99025MR  25348.95249226  .00008181  00000+0  11057-2 0  9999", "line2": "2 30016  98.9054   1.1501 0046763  34.1738  34.0199 14.78579358994866"}}, "geometry": {"type": "Point", "coordinates": [-1.7747614233666107, 21.34888138256422]}}, {"type": "Feature", "properties": {"norad_id": 30017, "name": "FENGYUN 1C DEB", "group": "fengyun-1c-debris", "lat": -9.712745251237907, "lon": 35.74688867365834, "alt_km": 846.8880822738302, "timestamp": "2025-12-15T11:38:37.426550+00:00", "meta": {"OBJECT_NAME": "FENGYUN 1C DEB", "OBJECT_ID": "1999-025MS", "EPOCH": "2025-12-14T15:58:07.393440", "MEAN_MOTION": 14.61201045, "ECCENTRICITY": 0.0217546, "INCLINATION": 98.7547, "RA_OF_ASC_NODE": 33.3679, "ARG_OF_PERICENTER": 169.1596, "MEAN_ANOMALY": 191.4405, "EPHEMERIS_TYPE": 0, "CLASSIFICATION_TYPE": "U", "NORAD_CAT_ID": 30017, "ELEMENT_SET_NO": 999, "REV_AT_EPOCH": 472, "BSTAR": 0.00020007547, "MEAN_MOTION_DOT": 1.313e-05, "MEAN_MOTION_DDOT": 0}, "tle": {"line1": "1 30017U 99025MS  25348.66536335  .00001313  00000+0  20008-3 0  9995", "line2": "2 30017  98.7547  33.3679 0217546 169.1596 191.4405 14.61201045  4727"}}, "geometry": {"type": "Point", "coordinates": [35.74688867365834, -9.712745251237907]}}, {"type": "Feature", "properties": {"norad_id": 30018, "name": "FENGYUN 1C DEB", "group": "fengyun-1c-debris", "lat": 38.293400020035676, "lon": -100.67070857798285, "alt_km": 590.230962728705, "timestamp": "2025-12-15T11:38:37.426560+00:00", "meta": {"OBJECT_NAME": "FENGYUN 1C DEB", "OBJECT_ID": "1999-025MT", "EPOCH": "2025-12-14T19:17:13.754688", "MEAN_MOTION": 14.73209486, "ECCENTRICITY": 0.0116747, "INCLINATION": 98.7561, "RA_OF_ASC_NODE": 71.6047, "ARG_OF_PERICENTER": 188.9888, "MEAN_ANOMALY": 300.6742, "EPHEMERIS_TYPE": 0, "CLASSIFICATION_TYPE": "U", "NORAD_CAT_ID": 30018, "ELEMENT_SET_NO": 999, "REV_AT_EPOCH": 467, "BSTAR": 0.000766069, "MEAN_MOTION_DOT": 5.448e-05, "MEAN_MOTION_DDOT": 0}, "tle": {"line1": "1 30018U 99025MT  25348.80363142  .00005448  00000+0  76607-3 0  9995", "line2": "2 30018  98.7561  71.6047 0116747 188.9888 300.6742 14.73209486  4674"}}, "geometry": {"type": "Point", "coordinates": [-100.67070857798285, 38.293400020035676]}}, {"type": "Feature", "properties": {"norad_id": 30020, "name": "FENGYUN 1C DEB", "group": "fengyun-1c-debris", "lat": -77.57037382772788, "lon": 38.19019122367235, "alt_km": 992.9280910259868, "timestamp": "2025-12-15T11:38:37.426570+00:00", "meta": {"OBJECT_NAME": "FENGYUN 1C DEB", "OBJECT_ID": "1999-025MV", "EPOCH": "2025-12-14T22:38:12.987168", "MEAN_MOTION": 14.04470081, "ECCENTRICITY": 0.01840034, "INCLINATION": 98.8472, "RA_OF_ASC_NODE": 352.6991, "ARG_OF_PERICENTER": 64.3547, "MEAN_ANOMALY": 357.0449, "EPHEMERIS_TYPE": 0, "CLASSIFICATION_TYPE": "U", "NORAD_CAT_ID": 30020, "ELEMENT_SET_NO": 999, "REV_AT_EPOCH": 96689, "BSTAR": 0.00050912759, "MEAN_MOTION_DOT": 9.02e-06, "MEAN_MOTION_DDOT": 0}, "tle": {"line1": "1 30020U 99025MV  25348.94320587  .00000902  00000+0  50913-3 0  9991", "line2": "2 30020  98.8472 352.6991 0184003  64.3547 357.0449 14.04470081966894"}}, "geometry": {"type": "Point", "coordinates": [38.19019122367235, -77.57037382772788]}}, {"type": "Feature", "properties": {"norad_id": 30021, "name": "FENGYUN 1C DEB", "group": "fengyun-1c-debris", "lat": 80.45003584912662, "lon": -86.65885672070601, "alt_km": 920.2914665039898, "timestamp": "2025-12-15T11:38:37.426580+00:00", "meta": {"OBJECT_NAME": "FENGYUN 1C DEB", "OBJECT_ID": "1999-025MW", "EPOCH": "2025-12-14T21:53:00.404736", "MEAN_MOTION": 14.04893489, "ECCENTRICITY": 0.00719037, "INCLINATION": 98.8357, "RA_OF_ASC_NODE": 340.382, "ARG_OF_PERICENTER": 280.9392, "MEAN_ANOMALY": 147.1014, "EPHEMERIS_TYPE": 0, "CLASSIFICATION_TYPE": "U", "NORAD_CAT_ID": 30021, "ELEMENT_SET_NO": 999, "REV_AT_EPOCH": 96962, "BSTAR": 0.00019865565, "MEAN_MOTION_DOT": 2.83e-06, "MEAN_MOTION_DDOT": 0}, "tle": {"line1": "1 30021U 99025MW  25348.91181024  .00000283  00000+0  19866-3 0  9994", "line2": "2 30021  98.8357 340.3820 0071903 280.9392 147.1014 14.04893489969621"}}, "geometry": {"type": "Point", "coordinates": [-86.65885672070601, 80.45003584912662]}}, {"type": "Feature", "properties": {"norad_id": 30022, "name": "FENGYUN 1C DEB", "group": "fengyun-1c-debris", "lat": 11.775444861081278, "lon": 19.58997019574099, "alt_km": 818.398335257586, "timestamp": "2025-12-15T11:38:37.426590+00:00", "meta": {"OBJECT_NAME": "FENGYUN 1C DEB", "OBJECT_ID": "1999-025MX", "EPOCH": "2025-12-14T19:44:08.740896", "MEAN_MOTION": 14.23133312, "ECCENTRICITY": 0.00665659, "INCLINATION": 99.0721, "RA_OF_ASC_NODE": 196.9985, "ARG_OF_PERICENTER": 263.076, "MEAN_ANOMALY": 111.6702, "EPHEMERIS_TYPE": 0, "CLASSIFICATION_TYPE": "U", "NORAD_CAT_ID": 30022, "ELEMENT_SET_NO": 999, "REV_AT_EPOCH": 98222, "BSTAR": 8.8959855e-05, "MEAN_MOTION_DOT": 1.58e-06, "MEAN_MOTION_DDOT": 0}, "tle": {"line1": "1 30022U 99025MX  25348.82232339  .00000158  00000+0  88960-4 0  9994", "line2": "2 30022  99.0721 196.9985 0066565 263.0760 111.6702 14.23133312982220"}}, "geometry": {"type": "Point", "coordinates": [19.58997019574099, 11.775444861081278]}}, {"type": "Feature", "properties": {"norad_id": 30023, "name": "FENGYUN 1C DEB", "group": "fengyun-1c-debris", "lat": -12.901674657436352, "lon": -174.7052339995982, "alt_km": 844.9918828772252, "timestamp": "2025-12-15T11:38:37.426601+00:00", "meta": {"OBJECT_NAME": "FENGYUN 1C DEB", "OBJECT_ID": "1999-025MY", "EPOCH": "2025-12-14T18:46:11.363808", "MEAN_MOTION": 14.11866008, "ECCENTRICITY": 0.00471604, "INCLINATION": 99.2938, "RA_OF_ASC_NODE": 182.4171, "ARG_OF_PERICENTER": 57.9346, "MEAN_ANOMALY": 318.0164, "EPHEMERIS_TYPE": 0, "CLASSIFICATION_TYPE": "U", "NORAD_CAT_ID": 30023, "ELEMENT_SET_NO": 999, "REV_AT_EPOCH": 97225, "BSTAR": 0.00044899203, "MEAN_MOTION_DOT": 7.81e-06, "MEAN_MOTION_DDOT": 0}, "tle": {"line1": "1 30023U 99025MY  25348.78207597  .00000781  00000+0  44899-3 0  9992", "line2": "2 30023  99.2938 182.4171 0047160  57.9346 318.0164 14.11866008972259"}}, "geometry": {"type": "Point", "coordinates": [-174.7052339995982, -12.901674657436352]}}, {"type": "Feature", "properties": {"norad_id": 30028, "name": "FENGYUN 1C DEB", "group": "fengyun-1c-debris", "lat": -23.087136412943966, "lon": -14.85621604509443, "alt_km": 767.501377552152, "timestamp": "2025-12-15T11:38:37.426611+00:00", "meta": {"OBJECT_NAME": "FENGYUN 1C DEB", "OBJECT_ID": "1999-025ND", "EPOCH": "2025-12-14T22:48:40.574304", "MEAN_MOTION": 14.55498639, "ECCENTRICITY": 0.01743062, "INCLINATION": 98.1454, "RA_OF_ASC_NODE": 341.1218, "ARG_OF_PERICENTER": 221.4541, "MEAN_ANOMALY": 193.5457, "EPHEMERIS_TYPE": 0, "CLASSIFICATION_TYPE": "U", "NORAD_CAT_ID": 30028, "ELEMENT_SET_NO": 999, "REV_AT_EPOCH": 99754, "BSTAR": 0.00032547338, "MEAN_MOTION_DOT": 1.684e-05, "MEAN_MOTION_DDOT": 0}, "tle": {"line1": "1 30028U 99025ND  25348.95046961  .00001684  00000+0  32547-3 0  9992", "line2": "2 30028  98.1454 341.1218 0174306 221.4541 193.5457 14.55498639997548"}}, "geometry": {"type": "Point", "coordinates": [-14.85621604509443, -23.087136412943966]}}]}